IDEFIX & ARIANE 42P R/B 
1 27422U 02021B   26033.25589568  .00000322  00000+0  13907-3 0  9993
2 27422  98.5836 332.2939 0010807 295.0935  64.9126 14.30998844238953
AQUA                    
1 27424U 02022A   26033.24078765  .00001146  00000+0  23900-3 0  9996
2 27424  98.4111 359.9781 0001709  58.9325  53.5424 14.61883832263554
CZ-4B R/B               
1 27432U 02024C   26033.13963204  .00000058  00000+0  52643-4 0  9994
2 27432  98.8914  86.7121 0051019 123.4800 295.8240 14.14540782224215
MIDORI II (ADEOS-II)    
1 27597U 02056A   26033.31094716  .00000349  00000+0  15503-3 0  9990
2 27597  98.7708 351.5589 0002113  92.5756 267.5667 14.29256264205241
H-2A R/B                
1 27601U 02056E   26033.17545543  .00000328  00000+0  12982-3 0  9994
2 27601  98.3138 354.9073 0068999 267.5139 101.9841 14.33733165209028
CZ-4B R/B               
1 28059U 03049C   26032.96775433  .00000509  00000+0  12832-3 0  9999
2 28059  98.6836  26.4827 0047875 342.1313  17.8197 14.54977430181404
CZ-2C R/B               
1 28222U 04012C   26033.12762313  .00045844  00000+0  55332-3 0  9997
2 28222  97.7321  95.1518 0016612  82.8459 277.4686 15.60459111198728
SL-16 R/B               
1 28353U 04021B   26033.24209919 -.00000134  00000+0 -44787-4 0  9991
2 28353  71.0011 306.8848 0002729  98.3777 261.7654 14.14589390117825
CZ-4B R/B               
1 28415U 04035C   26033.10475414  .00007416  00000+0  26634-3 0  9993
2 28415  97.3547  67.7828 0034332  94.9074 265.6087 15.28386634174476
CZ-2C R/B               
1 28480U 04046B   26033.28582224  .00000167  00000+0  77975-4 0  9995
2 28480  98.2000 310.4678 0138182 259.5444  99.0142 14.26978395103450
ARIANE 5 R/B            
1 28499U 04049H   26033.06123146  .00001123  00000+0  12975-3 0  9999
2 28499  98.2570 200.1998 0085472 106.3609 254.7023 14.85185630140509
CZ-2D R/B               
1 28738U 05024B   26033.01092155  .00035344  00000+0  48914-3 0  9993
2 28738  97.3610  46.9354 0006788 133.1336 227.0488 15.57012689134223
