CCSDS_OMM_VERS = 2.0
CREATION_DATE  = 
ORIGINATOR     = 

OBJECT_NAME    = IDEFIX & ARIANE 42P R/B
OBJECT_ID      = 2002-021B
CENTER_NAME    = EARTH
REF_FRAME      = TEME
TIME_SYSTEM    = UTC
MEAN_ELEMENT_THEORY = SGP/SGP4

EPOCH          = 2026-02-02T06:08:29.386752
MEAN_MOTION    = 14.30998844
ECCENTRICITY   = .00108077
INCLINATION    = 98.5836
RA_OF_ASC_NODE = 332.2939
ARG_OF_PERICENTER = 295.0935
MEAN_ANOMALY   = 64.9126

EPHEMERIS_TYPE = 0
CLASSIFICATION_TYPE = U
NORAD_CAT_ID   = 27422
ELEMENT_SET_NO = 999
REV_AT_EPOCH   = 23895
BSTAR          = .13906524E-3
MEAN_MOTION_DOT = .322E-5
MEAN_MOTION_DDOT = 0

CCSDS_OMM_VERS = 2.0
CREATION_DATE  = 
ORIGINATOR     = 

OBJECT_NAME    = AQUA
OBJECT_ID      = 2002-022A
CENTER_NAME    = EARTH
REF_FRAME      = TEME
TIME_SYSTEM    = UTC
MEAN_ELEMENT_THEORY = SGP/SGP4

EPOCH          = 2026-02-02T05:46:44.052960
MEAN_MOTION    = 14.61883832
ECCENTRICITY   = .00017096
INCLINATION    = 98.4111
RA_OF_ASC_NODE = 359.9781
ARG_OF_PERICENTER = 58.9325
MEAN_ANOMALY   = 53.5424

EPHEMERIS_TYPE = 0
CLASSIFICATION_TYPE = U
NORAD_CAT_ID   = 27424
ELEMENT_SET_NO = 999
REV_AT_EPOCH   = 26355
BSTAR          = .23900375E-3
MEAN_MOTION_DOT = .1146E-4
MEAN_MOTION_DDOT = 0

CCSDS_OMM_VERS = 2.0
CREATION_DATE  = 
ORIGINATOR     = 

OBJECT_NAME    = CZ-4B R/B
OBJECT_ID      = 2002-024C
CENTER_NAME    = EARTH
REF_FRAME      = TEME
TIME_SYSTEM    = UTC
MEAN_ELEMENT_THEORY = SGP/SGP4

EPOCH          = 2026-02-02T03:21:04.208256
MEAN_MOTION    = 14.14540782
ECCENTRICITY   = .00510193
INCLINATION    = 98.8914
RA_OF_ASC_NODE = 86.7121
ARG_OF_PERICENTER = 123.4800
MEAN_ANOMALY   = 295.8240

EPHEMERIS_TYPE = 0
CLASSIFICATION_TYPE = U
NORAD_CAT_ID   = 27432
ELEMENT_SET_NO = 999
REV_AT_EPOCH   = 22421
BSTAR          = .52643437E-4
MEAN_MOTION_DOT = .58E-6
MEAN_MOTION_DDOT = 0

CCSDS_OMM_VERS = 2.0
CREATION_DATE  = 
ORIGINATOR     = 

OBJECT_NAME    = MIDORI II (ADEOS-II)
OBJECT_ID      = 2002-056A
CENTER_NAME    = EARTH
REF_FRAME      = TEME
TIME_SYSTEM    = UTC
MEAN_ELEMENT_THEORY = SGP/SGP4

EPOCH          = 2026-02-02T07:27:45.834624
MEAN_MOTION    = 14.29256264
ECCENTRICITY   = .00021131
INCLINATION    = 98.7708
RA_OF_ASC_NODE = 351.5589
ARG_OF_PERICENTER = 92.5756
MEAN_ANOMALY   = 267.5667

EPHEMERIS_TYPE = 0
CLASSIFICATION_TYPE = U
NORAD_CAT_ID   = 27597
ELEMENT_SET_NO = 999
REV_AT_EPOCH   = 20524
BSTAR          = .15503281E-3
MEAN_MOTION_DOT = .349E-5
MEAN_MOTION_DDOT = 0

CCSDS_OMM_VERS = 2.0
CREATION_DATE  = 
ORIGINATOR     = 

OBJECT_NAME    = H-2A R/B
OBJECT_ID      = 2002-056E
CENTER_NAME    = EARTH
REF_FRAME      = TEME
TIME_SYSTEM    = UTC
MEAN_ELEMENT_THEORY = SGP/SGP4

EPOCH          = 2026-02-02T04:12:39.349152
MEAN_MOTION    = 14.33733165
ECCENTRICITY   = .00689991
INCLINATION    = 98.3138
RA_OF_ASC_NODE = 354.9073
ARG_OF_PERICENTER = 267.5139
MEAN_ANOMALY   = 101.9841

EPHEMERIS_TYPE = 0
CLASSIFICATION_TYPE = U
NORAD_CAT_ID   = 27601
ELEMENT_SET_NO = 999
REV_AT_EPOCH   = 20902
BSTAR          = .12981541E-3
MEAN_MOTION_DOT = .328E-5
MEAN_MOTION_DDOT = 0

CCSDS_OMM_VERS = 2.0
CREATION_DATE  = 
ORIGINATOR     = 

OBJECT_NAME    = CZ-4B R/B
OBJECT_ID      = 2003-049C
CENTER_NAME    = EARTH
REF_FRAME      = TEME
TIME_SYSTEM    = UTC
MEAN_ELEMENT_THEORY = SGP/SGP4

EPOCH          = 2026-02-01T23:13:33.974112
MEAN_MOTION    = 14.54977430
ECCENTRICITY   = .00478759
INCLINATION    = 98.6836
RA_OF_ASC_NODE = 26.4827
ARG_OF_PERICENTER = 342.1313
MEAN_ANOMALY   = 17.8197

EPHEMERIS_TYPE = 0
CLASSIFICATION_TYPE = U
NORAD_CAT_ID   = 28059
ELEMENT_SET_NO = 999
REV_AT_EPOCH   = 18140
BSTAR          = .12832217E-3
MEAN_MOTION_DOT = .509E-5
MEAN_MOTION_DDOT = 0

CCSDS_OMM_VERS = 2.0
CREATION_DATE  = 
ORIGINATOR     = 

OBJECT_NAME    = CZ-2C R/B
OBJECT_ID      = 2004-012C
CENTER_NAME    = EARTH
REF_FRAME      = TEME
TIME_SYSTEM    = UTC
MEAN_ELEMENT_THEORY = SGP/SGP4

EPOCH          = 2026-02-02T03:03:46.638432
MEAN_MOTION    = 15.60459111
ECCENTRICITY   = .00166124
INCLINATION    = 97.7321
RA_OF_ASC_NODE = 95.1518
ARG_OF_PERICENTER = 82.8459
MEAN_ANOMALY   = 277.4686

EPHEMERIS_TYPE = 0
CLASSIFICATION_TYPE = U
NORAD_CAT_ID   = 28222
ELEMENT_SET_NO = 999
REV_AT_EPOCH   = 19872
BSTAR          = .55332494E-3
MEAN_MOTION_DOT = .45844E-3
MEAN_MOTION_DDOT = 0

CCSDS_OMM_VERS = 2.0
CREATION_DATE  = 
ORIGINATOR     = 

OBJECT_NAME    = SL-16 R/B
OBJECT_ID      = 2004-021B
CENTER_NAME    = EARTH
REF_FRAME      = TEME
TIME_SYSTEM    = UTC
MEAN_ELEMENT_THEORY = SGP/SGP4

EPOCH          = 2026-02-02T05:48:37.370016
MEAN_MOTION    = 14.14589390
ECCENTRICITY   = .00027292
INCLINATION    = 71.0011
RA_OF_ASC_NODE = 306.8848
ARG_OF_PERICENTER = 98.3777
MEAN_ANOMALY   = 261.7654

EPHEMERIS_TYPE = 0
CLASSIFICATION_TYPE = U
NORAD_CAT_ID   = 28353
ELEMENT_SET_NO = 999
REV_AT_EPOCH   = 11782
BSTAR          = -.4478661E-4
MEAN_MOTION_DOT = -.134E-5
MEAN_MOTION_DDOT = 0

CCSDS_OMM_VERS = 2.0
CREATION_DATE  = 
ORIGINATOR     = 

OBJECT_NAME    = CZ-4B R/B
OBJECT_ID      = 2004-035C
CENTER_NAME    = EARTH
REF_FRAME      = TEME
TIME_SYSTEM    = UTC
MEAN_ELEMENT_THEORY = SGP/SGP4

EPOCH          = 2026-02-02T02:30:50.757696
MEAN_MOTION    = 15.28386634
ECCENTRICITY   = .00343322
INCLINATION    = 97.3547
RA_OF_ASC_NODE = 67.7828
ARG_OF_PERICENTER = 94.9074
MEAN_ANOMALY   = 265.6087

EPHEMERIS_TYPE = 0
CLASSIFICATION_TYPE = U
NORAD_CAT_ID   = 28415
ELEMENT_SET_NO = 999
REV_AT_EPOCH   = 17447
BSTAR          = .26633938E-3
MEAN_MOTION_DOT = .7416E-4
MEAN_MOTION_DDOT = 0

CCSDS_OMM_VERS = 2.0
CREATION_DATE  = 
ORIGINATOR     = 

OBJECT_NAME    = CZ-2C R/B
OBJECT_ID      = 2004-046B
CENTER_NAME    = EARTH
REF_FRAME      = TEME
TIME_SYSTEM    = UTC
MEAN_ELEMENT_THEORY = SGP/SGP4

EPOCH          = 2026-02-02T06:51:35.041536
MEAN_MOTION    = 14.26978395
ECCENTRICITY   = .01381821
INCLINATION    = 98.2000
RA_OF_ASC_NODE = 310.4678
ARG_OF_PERICENTER = 259.5444
MEAN_ANOMALY   = 99.0142

EPHEMERIS_TYPE = 0
CLASSIFICATION_TYPE = U
NORAD_CAT_ID   = 28480
ELEMENT_SET_NO = 999
REV_AT_EPOCH   = 10345
BSTAR          = .77974564E-4
MEAN_MOTION_DOT = .167E-5
MEAN_MOTION_DDOT = 0

CCSDS_OMM_VERS = 2.0
CREATION_DATE  = 
ORIGINATOR     = 

OBJECT_NAME    = ARIANE 5 R/B
OBJECT_ID      = 2004-049H
CENTER_NAME    = EARTH
REF_FRAME      = TEME
TIME_SYSTEM    = UTC
MEAN_ELEMENT_THEORY = SGP/SGP4

EPOCH          = 2026-02-02T01:28:10.398144
MEAN_MOTION    = 14.85185630
ECCENTRICITY   = .0085472
INCLINATION    = 98.2570
RA_OF_ASC_NODE = 200.1998
ARG_OF_PERICENTER = 106.3609
MEAN_ANOMALY   = 254.7023

EPHEMERIS_TYPE = 0
CLASSIFICATION_TYPE = U
NORAD_CAT_ID   = 28499
ELEMENT_SET_NO = 999
REV_AT_EPOCH   = 14050
BSTAR          = .12974885E-3
MEAN_MOTION_DOT = .1123E-4
MEAN_MOTION_DDOT = 0

CCSDS_OMM_VERS = 2.0
CREATION_DATE  = 
ORIGINATOR     = 

OBJECT_NAME    = CZ-2D R/B
OBJECT_ID      = 2005-024B
CENTER_NAME    = EARTH
REF_FRAME      = TEME
TIME_SYSTEM    = UTC
MEAN_ELEMENT_THEORY = SGP/SGP4

EPOCH          = 2026-02-02T00:15:43.621920
MEAN_MOTION    = 15.57012689
ECCENTRICITY   = .00067883
INCLINATION    = 97.3610
RA_OF_ASC_NODE = 46.9354
ARG_OF_PERICENTER = 133.1336
MEAN_ANOMALY   = 227.0488

EPHEMERIS_TYPE = 0
CLASSIFICATION_TYPE = U
NORAD_CAT_ID   = 28738
ELEMENT_SET_NO = 999
REV_AT_EPOCH   = 13422
BSTAR          = .4891386E-3
MEAN_MOTION_DOT = .35344E-3
MEAN_MOTION_DDOT = 0

